format  = 'OEF2.0'       ! file format
rectype = 'ML'           ! record type (1L/ML)
refsys  = ECLM J2000     ! default reference system
END_OF_HEADER
2015RN35
! Equinoctial elements: a, e*sin(LP), e*cos(LP), tan(i/2)*sin(LN), tan(i/2)*cos(LN), mean long.
 EQU   1.4597511649964576E+00   0.285859596765038   0.187526234607125   -0.001113623174100   -0.001969823073789  34.9412561585624
 MJD     57291.958166082 TDT
 MAG  22.961  0.150
! Non-grav parameters: model used, actual number in use, dimension
 LSP   0  0    6
! RMS    7.65556E-05   2.84584E-05   1.92970E-05   1.08878E-07   1.43177E-07   2.21481E-03
! EIG   2.03849E-08   2.27827E-08   5.43025E-08   8.15660E-08   9.40887E-07   9.23927E-05
! WEA   0.82858   0.30801   0.20880  -0.00115  -0.00128   0.41831
 COV   5.860754212358674E-09  2.178475193156912E-09  1.477016872787928E-09
 COV  -8.114239585309508E-12 -9.036406203359752E-12  1.695112576010647E-07
 COV   8.098813248081026E-10  5.488849685952136E-10 -3.016966166535219E-12
 COV  -3.359929774476825E-12  6.302641396012351E-08  3.723733778317514E-10
 COV  -2.043979490845501E-12 -2.276163223751539E-12  4.270120353562360E-08
 COV   1.185436445740294E-14  1.327352950248086E-14 -2.348163086060917E-10
 COV   2.049965583811328E-14 -2.615160439253760E-10  4.905365897000092E-06
 NOR   1.407628173225618E+14  1.719333122415049E+14 -3.660493465318898E+14
 NOR   6.574290122776081E+12  6.640536687412985E+11 -3.886510738939344E+12
 NOR   9.664981316593789E+14 -7.225538982561366E+14 -2.688994982864402E+13
 NOR   1.593137981393302E+12 -1.207076516925204E+13  1.053709448531535E+15
 NOR  -4.547685416641566E+12 -2.069606112121908E+12  1.276014812225937E+13
 NOR   1.899595559904797E+15 -2.184656853038033E+14  2.371844064663633E+11
 NOR   1.776507163662037E+14 -2.638752552510723E+10  1.783272635865012E+11
!MOID  0.00026    0
!NODES  0.84956 -0.00627
